{
  "type": "FeatureCollection",
  "features": [
    {
      "type": "Feature",
      "properties": {
        "norad_id": 40010,
        "name": "KAZEOSAT 2",
        "group": "resource",
        "lat": 35.50626028987756,
        "lon": 23.748161904859753,
        "alt_km": 605.984271284322,
        "timestamp": "2025-12-20T09:36:01.288702+00:00",
        "meta_object_name": "KAZEOSAT 2",
        "meta_object_id": "2014-033A",
        "meta_epoch": "2025-12-20T04:06:09.984096",
        "meta_mean_motion": 14.85177262,
        "meta_eccentricity": 0.0008252,
        "meta_inclination": 97.5499,
        "meta_ra_of_asc_node": 198.1013,
        "meta_arg_of_pericenter": 180.656,
        "meta_mean_anomaly": 179.4647,
        "meta_ephemeris_type": 0,
        "meta_classification_type": "U",
        "meta_norad_cat_id": 40010,
        "meta_element_set_no": 999,
        "meta_rev_at_epoch": 62238,
        "meta_bstar": 5.3022e-06,
        "meta_mean_motion_dot": -5e-08,
        "meta_mean_motion_ddot": 0,
        "tle_line1": "1 40010U 14033A   25354.17094889 -.00000005  00000+0  53022-5 0  9993",
        "tle_line2": "2 40010  97.5499 198.1013 0008252 180.6560 179.4647 14.85177262622388"
      },
      "geometry": {
        "type": "Point",
        "coordinates": [
          23.748161904859753,
          35.50626028987756
        ]
      }
    },
    {
      "type": "Feature",
      "properties": {
        "norad_id": 40011,
        "name": "HODOYOSHI-4",
        "group": "resource",
        "lat": -63.0455497180945,
        "lon": -161.99598574641115,
        "alt_km": 621.4780640003137,
        "timestamp": "2025-12-20T09:36:01.288712+00:00",
        "meta_object_name": "HODOYOSHI-4",
        "meta_object_id": "2014-033B",
        "meta_epoch": "2025-12-20T03:25:52.501728",
        "meta_mean_motion": 14.87505328,
        "meta_eccentricity": 0.0023765,
        "meta_inclination": 97.5405,
        "meta_ra_of_asc_node": 182.6611,
        "meta_arg_of_pericenter": 175.8083,
        "meta_mean_anomaly": 184.3338,
        "meta_ephemeris_type": 0,
        "meta_classification_type": "U",
        "meta_norad_cat_id": 40011,
        "meta_element_set_no": 999,
        "meta_rev_at_epoch": 62218,
        "meta_bstar": 0.00014335,
        "meta_mean_motion_dot": 1.254e-05,
        "meta_mean_motion_ddot": 0,
        "tle_line1": "1 40011U 14033B   25354.14296877  .00001254  00000+0  14335-3 0  9990",
        "tle_line2": "2 40011  97.5405 182.6611 0023765 175.8083 184.3338 14.87505328622180"
      },
      "geometry": {
        "type": "Point",
        "coordinates": [
          -161.99598574641115,
          -63.0455497180945
        ]
      }
    },
    {
      "type": "Feature",
      "properties": {
        "norad_id": 40013,
        "name": "DEIMOS-2",
        "group": "resource",
        "lat": -63.36627747640685,
        "lon": 34.49214448337987,
        "alt_km": 596.5627016998505,
        "timestamp": "2025-12-20T09:36:01.288722+00:00",
        "meta_object_name": "DEIMOS-2",
        "meta_object_id": "2014-033D",
        "meta_epoch": "2025-12-20T05:17:32.298144",
        "meta_mean_motion": 14.93006368,
        "meta_eccentricity": 0.0001463,
        "meta_inclination": 97.6068,
        "meta_ra_of_asc_node": 229.7736,
        "meta_arg_of_pericenter": 104.9286,
        "meta_mean_anomaly": 255.2096,
        "meta_ephemeris_type": 0,
        "meta_classification_type": "U",
        "meta_norad_cat_id": 40013,
        "meta_element_set_no": 999,
        "meta_rev_at_epoch": 61101,
        "meta_bstar": 0.00023613,
        "meta_mean_motion_dot": 2.4e-05,
        "meta_mean_motion_ddot": 0,
        "tle_line1": "1 40013U 14033D   25354.22051271  .00002400  00000+0  23613-3 0  9991",
        "tle_line2": "2 40013  97.6068 229.7736 0001463 104.9286 255.2096 14.93006368611014"
      },
      "geometry": {
        "type": "Point",
        "coordinates": [
          34.49214448337987,
          -63.36627747640685
        ]
      }
    },
    {
      "type": "Feature",
      "properties": {
        "norad_id": 40015,
        "name": "HODOYOSHI-3",
        "group": "resource",
        "lat": 32.39756159182705,
        "lon": -15.22458423605103,
        "alt_km": 606.2372313906426,
        "timestamp": "2025-12-20T09:36:01.288732+00:00",
        "meta_object_name": "HODOYOSHI-3",
        "meta_object_id": "2014-033F",
        "meta_epoch": "2025-12-20T00:51:00.822816",
        "meta_mean_motion": 14.84829339,
        "meta_eccentricity": 0.0032209,
        "meta_inclination": 97.6204,
        "meta_ra_of_asc_node": 159.5533,
        "meta_arg_of_pericenter": 223.0921,
        "meta_mean_anomaly": 136.7773,
        "meta_ephemeris_type": 0,
        "meta_classification_type": "U",
        "meta_norad_cat_id": 40015,
        "meta_element_set_no": 999,
        "meta_rev_at_epoch": 62103,
        "meta_bstar": 0.00013893,
        "meta_mean_motion_dot": 1.138e-05,
        "meta_mean_motion_ddot": 0,
        "tle_line1": "1 40015U 14033F   25354.03542619  .00001138  00000+0  13893-3 0  9999",
        "tle_line2": "2 40015  97.6204 159.5533 0032209 223.0921 136.7773 14.84829339621033"
      },
      "geometry": {
        "type": "Point",
        "coordinates": [
          -15.22458423605103,
          32.39756159182705
        ]
      }
    },
    {
      "type": "Feature",
      "properties": {
        "norad_id": 40053,
        "name": "SPOT 7",
        "group": "resource",
        "lat": -70.87614245234062,
        "lon": 80.51836291076867,
        "alt_km": 699.092854771874,
        "timestamp": "2025-12-20T09:36:01.288743+00:00",
        "meta_object_name": "SPOT 7",
        "meta_object_id": "2014-034A",
        "meta_epoch": "2025-12-20T03:21:23.299200",
        "meta_mean_motion": 14.60742558,
        "meta_eccentricity": 0.000156,
        "meta_inclination": 98.0904,
        "meta_ra_of_asc_node": 56.0453,
        "meta_arg_of_pericenter": 87.4794,
        "meta_mean_anomaly": 272.6585,
        "meta_ephemeris_type": 0,
        "meta_classification_type": "U",
        "meta_norad_cat_id": 40053,
        "meta_element_set_no": 999,
        "meta_rev_at_epoch": 61099,
        "meta_bstar": 8.3419e-05,
        "meta_mean_motion_dot": 3.61e-06,
        "meta_mean_motion_ddot": 0,
        "tle_line1": "1 40053U 14034A   25354.13985300  .00000361  00000+0  83419-4 0  9990",
        "tle_line2": "2 40053  98.0904  56.0453 0001560  87.4794 272.6585 14.60742558610990"
      },
      "geometry": {
        "type": "Point",
        "coordinates": [
          80.51836291076867,
          -70.87614245234062
        ]
      }
    },
    {
      "type": "Feature",
      "properties": {
        "norad_id": 40072,
        "name": "SKYSAT-B",
        "group": "resource",
        "lat": -54.461197208612845,
        "lon": 106.62758877483695,
        "alt_km": 614.567720075851,
        "timestamp": "2025-12-20T09:36:01.288753+00:00",
        "meta_object_name": "SKYSAT-B",
        "meta_object_id": "2014-037D",
        "meta_epoch": "2025-12-19T19:37:46.870176",
        "meta_mean_motion": 14.87350414,
        "meta_eccentricity": 0.0006578,
        "meta_inclination": 98.3621,
        "meta_ra_of_asc_node": 297.898,
        "meta_arg_of_pericenter": 130.2703,
        "meta_mean_anomaly": 229.9088,
        "meta_ephemeris_type": 0,
        "meta_classification_type": "U",
        "meta_norad_cat_id": 40072,
        "meta_element_set_no": 999,
        "meta_rev_at_epoch": 61929,
        "meta_bstar": 0.00013824731,
        "meta_mean_motion_dot": 1.188e-05,
        "meta_mean_motion_ddot": 0,
        "tle_line1": "1 40072U 14037D   25353.81790359  .00001188  00000+0  13825-3 0  9997",
        "tle_line2": "2 40072  98.3621 297.8980 0006578 130.2703 229.9088 14.87350414619291"
      },
      "geometry": {
        "type": "Point",
        "coordinates": [
          106.62758877483695,
          -54.461197208612845
        ]
      }
    },
    {
      "type": "Feature",
      "properties": {
        "norad_id": 40115,
        "name": "WORLDVIEW-3 (WV-3)",
        "group": "resource",
        "lat": 66.37912600576296,
        "lon": 48.12925770764795,
        "alt_km": 607.7223776392384,
        "timestamp": "2025-12-20T09:36:01.288763+00:00",
        "meta_object_name": "WORLDVIEW-3 (WV-3)",
        "meta_object_id": "2014-048A",
        "meta_epoch": "2025-12-20T04:26:38.864256",
        "meta_mean_motion": 14.8466331,
        "meta_eccentricity": 0.0001781,
        "meta_inclination": 97.8771,
        "meta_ra_of_asc_node": 66.3732,
        "meta_arg_of_pericenter": 137.0431,
        "meta_mean_anomaly": 223.0922,
        "meta_ephemeris_type": 0,
        "meta_classification_type": "U",
        "meta_norad_cat_id": 40115,
        "meta_element_set_no": 999,
        "meta_rev_at_epoch": 61534,
        "meta_bstar": 9.4225e-05,
        "meta_mean_motion_dot": 7.44e-06,
        "meta_mean_motion_ddot": 0,
        "tle_line1": "1 40115U 14048A   25354.18517204  .00000744  00000+0  94225-4 0  9995",
        "tle_line2": "2 40115  97.8771  66.3732 0001781 137.0431 223.0922 14.84663310615340"
      },
      "geometry": {
        "type": "Point",
        "coordinates": [
          48.12925770764795,
          66.37912600576296
        ]
      }
    }
  ]
}